CCSDS_OMM_VERS = 2.0
CREATION_DATE  = 
ORIGINATOR     = 

OBJECT_NAME    = STARLINK-35340
OBJECT_ID      = 2025-232T
CENTER_NAME    = EARTH
REF_FRAME      = TEME
TIME_SYSTEM    = UTC
MEAN_ELEMENT_THEORY = SGP/SGP4

EPOCH          = 2025-11-01T14:00:01.999872
MEAN_MOTION    = 15.63463731
ECCENTRICITY   = .00014943
INCLINATION    = 53.1587
RA_OF_ASC_NODE = 342.0454
ARG_OF_PERICENTER = 72.1643
MEAN_ANOMALY   = 99.7504

EPHEMERIS_TYPE = 0
CLASSIFICATION_TYPE = U
NORAD_CAT_ID   = 66022
ELEMENT_SET_NO = 999
REV_AT_EPOCH   = 293
BSTAR          = -.23244031E-1
MEAN_MOTION_DOT = -.1933472E-1
MEAN_MOTION_DDOT = 0

CCSDS_OMM_VERS = 2.0
CREATION_DATE  = 
ORIGINATOR     = 

OBJECT_NAME    = STARLINK-35394
OBJECT_ID      = 2025-232U
CENTER_NAME    = EARTH
REF_FRAME      = TEME
TIME_SYSTEM    = UTC
MEAN_ELEMENT_THEORY = SGP/SGP4

EPOCH          = 2025-11-01T14:00:01.999872
MEAN_MOTION    = 15.63462645
ECCENTRICITY   = .00014442
INCLINATION    = 53.1586
RA_OF_ASC_NODE = 342.0411
ARG_OF_PERICENTER = 71.3313
MEAN_ANOMALY   = 102.5032

EPHEMERIS_TYPE = 0
CLASSIFICATION_TYPE = U
NORAD_CAT_ID   = 66023
ELEMENT_SET_NO = 999
REV_AT_EPOCH   = 293
BSTAR          = -.23258617E-1
MEAN_MOTION_DOT = -.1934433E-1
MEAN_MOTION_DDOT = 0

CCSDS_OMM_VERS = 2.0
CREATION_DATE  = 
ORIGINATOR     = 

OBJECT_NAME    = STARLINK-35410
OBJECT_ID      = 2025-232V
CENTER_NAME    = EARTH
REF_FRAME      = TEME
TIME_SYSTEM    = UTC
MEAN_ELEMENT_THEORY = SGP/SGP4

EPOCH          = 2025-11-01T14:00:01.999872
MEAN_MOTION    = 15.63459980
ECCENTRICITY   = .00014266
INCLINATION    = 53.1589
RA_OF_ASC_NODE = 342.0330
ARG_OF_PERICENTER = 73.8463
MEAN_ANOMALY   = 103.8260

EPHEMERIS_TYPE = 0
CLASSIFICATION_TYPE = U
NORAD_CAT_ID   = 66024
ELEMENT_SET_NO = 999
REV_AT_EPOCH   = 293
BSTAR          = -.23247161E-1
MEAN_MOTION_DOT = -.1933399E-1
MEAN_MOTION_DDOT = 0

CCSDS_OMM_VERS = 2.0
CREATION_DATE  = 
ORIGINATOR     = 

OBJECT_NAME    = STARLINK-35280
OBJECT_ID      = 2025-232W
CENTER_NAME    = EARTH
REF_FRAME      = TEME
TIME_SYSTEM    = UTC
MEAN_ELEMENT_THEORY = SGP/SGP4

EPOCH          = 2025-11-01T14:00:01.999872
MEAN_MOTION    = 15.63463597
ECCENTRICITY   = .00014874
INCLINATION    = 53.1589
RA_OF_ASC_NODE = 342.0367
ARG_OF_PERICENTER = 72.2836
MEAN_ANOMALY   = 103.4661

EPHEMERIS_TYPE = 0
CLASSIFICATION_TYPE = U
NORAD_CAT_ID   = 66025
ELEMENT_SET_NO = 999
REV_AT_EPOCH   = 287
BSTAR          = -.23259025E-1
MEAN_MOTION_DOT = -.1934558E-1
MEAN_MOTION_DDOT = 0

CCSDS_OMM_VERS = 2.0
CREATION_DATE  = 
ORIGINATOR     = 

OBJECT_NAME    = STARLINK-34812
OBJECT_ID      = 2025-232X
CENTER_NAME    = EARTH
REF_FRAME      = TEME
TIME_SYSTEM    = UTC
MEAN_ELEMENT_THEORY = SGP/SGP4

EPOCH          = 2025-11-01T14:00:01.999872
MEAN_MOTION    = 15.63463512
ECCENTRICITY   = .0001358
INCLINATION    = 53.1592
RA_OF_ASC_NODE = 342.0297
ARG_OF_PERICENTER = 75.4979
MEAN_ANOMALY   = 104.0883

EPHEMERIS_TYPE = 0
CLASSIFICATION_TYPE = U
NORAD_CAT_ID   = 66026
ELEMENT_SET_NO = 999
REV_AT_EPOCH   = 288
BSTAR          = -.23286352E-1
MEAN_MOTION_DOT = -.1936464E-1
MEAN_MOTION_DDOT = 0

CCSDS_OMM_VERS = 2.0
CREATION_DATE  = 
ORIGINATOR     = 

OBJECT_NAME    = STARLINK-35341
OBJECT_ID      = 2025-232Y
CENTER_NAME    = EARTH
REF_FRAME      = TEME
TIME_SYSTEM    = UTC
MEAN_ELEMENT_THEORY = SGP/SGP4

EPOCH          = 2025-11-01T14:00:01.999872
MEAN_MOTION    = 15.68275628
ECCENTRICITY   = .00010643
INCLINATION    = 53.1588
RA_OF_ASC_NODE = 342.0057
ARG_OF_PERICENTER = 73.5288
MEAN_ANOMALY   = 117.7186

EPHEMERIS_TYPE = 0
CLASSIFICATION_TYPE = U
NORAD_CAT_ID   = 66027
ELEMENT_SET_NO = 999
REV_AT_EPOCH   = 293
BSTAR          = -.2762457E-4
MEAN_MOTION_DOT = -.3729E-4
MEAN_MOTION_DDOT = 0

CCSDS_OMM_VERS = 2.0
CREATION_DATE  = 
ORIGINATOR     = 

OBJECT_NAME    = STARLINK-35339
OBJECT_ID      = 2025-232Z
CENTER_NAME    = EARTH
REF_FRAME      = TEME
TIME_SYSTEM    = UTC
MEAN_ELEMENT_THEORY = SGP/SGP4

EPOCH          = 2025-11-01T14:00:01.999872
MEAN_MOTION    = 15.68260934
ECCENTRICITY   = .00010405
INCLINATION    = 53.1587
RA_OF_ASC_NODE = 342.0021
ARG_OF_PERICENTER = 76.4882
MEAN_ANOMALY   = 116.6836

EPHEMERIS_TYPE = 0
CLASSIFICATION_TYPE = U
NORAD_CAT_ID   = 66028
ELEMENT_SET_NO = 999
REV_AT_EPOCH   = 287
BSTAR          = .21642321E-3
MEAN_MOTION_DOT = .24194E-3
MEAN_MOTION_DDOT = 0

CCSDS_OMM_VERS = 2.0
CREATION_DATE  = 
ORIGINATOR     = 

OBJECT_NAME    = STARLINK-35399
OBJECT_ID      = 2025-232AA
CENTER_NAME    = EARTH
REF_FRAME      = TEME
TIME_SYSTEM    = UTC
MEAN_ELEMENT_THEORY = SGP/SGP4

EPOCH          = 2025-11-01T14:00:01.999872
MEAN_MOTION    = 15.68275127
ECCENTRICITY   = .00009818
INCLINATION    = 53.1586
RA_OF_ASC_NODE = 341.9984
ARG_OF_PERICENTER = 72.7399
MEAN_ANOMALY   = 122.3370

EPHEMERIS_TYPE = 0
CLASSIFICATION_TYPE = U
NORAD_CAT_ID   = 66029
ELEMENT_SET_NO = 999
REV_AT_EPOCH   = 287
BSTAR          = .79978479E-4
MEAN_MOTION_DOT = .8566E-4
MEAN_MOTION_DDOT = 0

CCSDS_OMM_VERS = 2.0
CREATION_DATE  = 
ORIGINATOR     = 

OBJECT_NAME    = STARLINK-35431
OBJECT_ID      = 2025-232AB
CENTER_NAME    = EARTH
REF_FRAME      = TEME
TIME_SYSTEM    = UTC
MEAN_ELEMENT_THEORY = SGP/SGP4

EPOCH          = 2025-11-01T14:00:01.999872
MEAN_MOTION    = 15.68244417
ECCENTRICITY   = .00009587
INCLINATION    = 53.1587
RA_OF_ASC_NODE = 341.9934
ARG_OF_PERICENTER = 85.0679
MEAN_ANOMALY   = 111.9354

EPHEMERIS_TYPE = 0
CLASSIFICATION_TYPE = U
NORAD_CAT_ID   = 66030
ELEMENT_SET_NO = 999
REV_AT_EPOCH   = 287
BSTAR          = .47491362E-3
MEAN_MOTION_DOT = .53939E-3
MEAN_MOTION_DDOT = 0

CCSDS_OMM_VERS = 2.0
CREATION_DATE  = 
ORIGINATOR     = 

OBJECT_NAME    = STARLINK-35326
OBJECT_ID      = 2025-232AC
CENTER_NAME    = EARTH
REF_FRAME      = TEME
TIME_SYSTEM    = UTC
MEAN_ELEMENT_THEORY = SGP/SGP4

EPOCH          = 2025-11-01T14:00:01.999872
MEAN_MOTION    = 15.68263011
ECCENTRICITY   = .00010096
INCLINATION    = 53.1588
RA_OF_ASC_NODE = 341.9901
ARG_OF_PERICENTER = 88.0141
MEAN_ANOMALY   = 110.8965

EPHEMERIS_TYPE = 0
CLASSIFICATION_TYPE = U
NORAD_CAT_ID   = 66031
ELEMENT_SET_NO = 999
REV_AT_EPOCH   = 293
BSTAR          = .19100113E-3
MEAN_MOTION_DOT = .21279E-3
MEAN_MOTION_DDOT = 0

CCSDS_OMM_VERS = 2.0
CREATION_DATE  = 
ORIGINATOR     = 

OBJECT_NAME    = STARLINK-35311
OBJECT_ID      = 2025-232AD
CENTER_NAME    = EARTH
REF_FRAME      = TEME
TIME_SYSTEM    = UTC
MEAN_ELEMENT_THEORY = SGP/SGP4

EPOCH          = 2025-11-01T14:00:01.999872
MEAN_MOTION    = 15.68250728
ECCENTRICITY   = .00010001
INCLINATION    = 53.1586
RA_OF_ASC_NODE = 341.9856
ARG_OF_PERICENTER = 84.0213
MEAN_ANOMALY   = 116.8094

EPHEMERIS_TYPE = 0
CLASSIFICATION_TYPE = U
NORAD_CAT_ID   = 66032
ELEMENT_SET_NO = 999
REV_AT_EPOCH   = 293
BSTAR          = .43848101E-3
MEAN_MOTION_DOT = .49744E-3
MEAN_MOTION_DDOT = 0

CCSDS_OMM_VERS = 2.0
CREATION_DATE  = 
ORIGINATOR     = 

OBJECT_NAME    = QIANFAN-91
OBJECT_ID      = 2025-233A
CENTER_NAME    = EARTH
REF_FRAME      = TEME
TIME_SYSTEM    = UTC
MEAN_ELEMENT_THEORY = SGP/SGP4

EPOCH          = 2025-11-01T15:20:12.874560
MEAN_MOTION    = 14.25911308
ECCENTRICITY   = .00161069
INCLINATION    = 88.9946
RA_OF_ASC_NODE = 66.7626
ARG_OF_PERICENTER = 160.9057
MEAN_ANOMALY   = 199.2743

EPHEMERIS_TYPE = 0
CLASSIFICATION_TYPE = U
NORAD_CAT_ID   = 66033
ELEMENT_SET_NO = 999
REV_AT_EPOCH   = 218
BSTAR          = .30875716E-3
MEAN_MOTION_DOT = .75E-5
MEAN_MOTION_DDOT = 0

