STARLINK-35340          
1 66022U 25232T   25305.58335648 -.01933472  00000+0 -23244-1 0  9993
2 66022  53.1587 342.0454 0001494  72.1643  99.7504 15.63463731  2937
STARLINK-35394          
1 66023U 25232U   25305.58335648 -.01934433  00000+0 -23259-1 0  9998
2 66023  53.1586 342.0411 0001444  71.3313 102.5032 15.63462645  2932
STARLINK-35410          
1 66024U 25232V   25305.58335648 -.01933399  00000+0 -23247-1 0  9996
2 66024  53.1589 342.0330 0001426  73.8463 103.8260 15.63459980  2934
STARLINK-35280          
1 66025U 25232W   25305.58335648 -.01934558  00000+0 -23259-1 0  9998
2 66025  53.1589 342.0367 0001487  72.2836 103.4661 15.63463597  2872
STARLINK-34812          
1 66026U 25232X   25305.58335648 -.01936464  00000+0 -23286-1 0  9997
2 66026  53.1592 342.0297 0001358  75.4979 104.0883 15.63463512  2880
STARLINK-35341          
1 66027U 25232Y   25305.58335648 -.00003729  00000+0 -27625-4 0  9990
2 66027  53.1588 342.0057 0001064  73.5288 117.7186 15.68275628  2933
STARLINK-35339          
1 66028U 25232Z   25305.58335648  .00024194  00000+0  21642-3 0  9990
2 66028  53.1587 342.0021 0001040  76.4882 116.6836 15.68260934  2877
STARLINK-35399          
1 66029U 25232AA  25305.58335648  .00008566  00000+0  79978-4 0  9992
2 66029  53.1586 341.9984 0000981  72.7399 122.3370 15.68275127  2875
STARLINK-35431          
1 66030U 25232AB  25305.58335648  .00053939  00000+0  47491-3 0  9992
2 66030  53.1587 341.9934 0000958  85.0679 111.9354 15.68244417  2879
STARLINK-35326          
1 66031U 25232AC  25305.58335648  .00021279  00000+0  19100-3 0  9991
2 66031  53.1588 341.9901 0001009  88.0141 110.8965 15.68263011  2934
STARLINK-35311          
1 66032U 25232AD  25305.58335648  .00049744  00000+0  43848-3 0  9995
2 66032  53.1586 341.9856 0001000  84.0213 116.8094 15.68250728  2939
QIANFAN-91              
1 66033U 25233A   25305.63903790  .00000750  00000+0  30876-3 0  9993
2 66033  88.9946  66.7626 0016106 160.9057 199.2743 14.25911308  2189
